{
  "type": "FeatureCollection",
  "features": [
    {
      "type": "Feature",
      "properties": {
        "norad_id": 36379,
        "name": "COSMOS 2251 DEB",
        "group": "cosmos-2251-debris",
        "lat": -43.3227569719773,
        "lon": -76.5170354820216,
        "alt_km": 789.7985089235881,
        "timestamp": "2025-12-16T21:38:57.572520+00:00",
        "meta_object_name": "COSMOS 2251 DEB",
        "meta_object_id": "1993-036AZG",
        "meta_epoch": "2025-12-16T05:26:49.179840",
        "meta_mean_motion": 14.36084841,
        "meta_eccentricity": 0.00446899,
        "meta_inclination": 74.0126,
        "meta_ra_of_asc_node": 300.4107,
        "meta_arg_of_pericenter": 68.321,
        "meta_mean_anomaly": 357.9105,
        "meta_ephemeris_type": 0,
        "meta_classification_type": "U",
        "meta_norad_cat_id": 36379,
        "meta_element_set_no": 999,
        "meta_rev_at_epoch": 64878,
        "meta_bstar": 0.00029124395,
        "meta_mean_motion_dot": 8.31e-06,
        "meta_mean_motion_ddot": 0,
        "tle_line1": "1 36379U 93036AZG 25350.22695810  .00000831  00000+0  29124-3 0  9999",
        "tle_line2": "2 36379  74.0126 300.4107 0044689  68.3210 357.9105 14.36084841648788"
      },
      "geometry": {
        "type": "Point",
        "coordinates": [
          -76.5170354820216,
          -43.3227569719773
        ]
      }
    },
    {
      "type": "Feature",
      "properties": {
        "norad_id": 36385,
        "name": "COSMOS 2251 DEB",
        "group": "cosmos-2251-debris",
        "lat": 73.40460207171958,
        "lon": -108.33874748059436,
        "alt_km": 714.0879554537005,
        "timestamp": "2025-12-16T21:38:57.572530+00:00",
        "meta_object_name": "COSMOS 2251 DEB",
        "meta_object_id": "1993-036AZN",
        "meta_epoch": "2025-12-14T12:09:34.420896",
        "meta_mean_motion": 14.72609971,
        "meta_eccentricity": 0.0141345,
        "meta_inclination": 73.9693,
        "meta_ra_of_asc_node": 151.0837,
        "meta_arg_of_pericenter": 325.0853,
        "meta_mean_anomaly": 34.1107,
        "meta_ephemeris_type": 0,
        "meta_classification_type": "U",
        "meta_norad_cat_id": 36385,
        "meta_element_set_no": 999,
        "meta_rev_at_epoch": 85128,
        "meta_bstar": 0.001300457,
        "meta_mean_motion_dot": 9.676e-05,
        "meta_mean_motion_ddot": 0,
        "tle_line1": "1 36385U 93036AZN 25348.50664839  .00009676  00000+0  13005-2 0  9997",
        "tle_line2": "2 36385  73.9693 151.0837 0141345 325.0853  34.1107 14.72609971851289"
      },
      "geometry": {
        "type": "Point",
        "coordinates": [
          -108.33874748059436,
          73.40460207171958
        ]
      }
    },
    {
      "type": "Feature",
      "properties": {
        "norad_id": 36420,
        "name": "COSMOS 2251 DEB",
        "group": "cosmos-2251-debris",
        "lat": -25.48025991892239,
        "lon": 95.6693286417093,
        "alt_km": 785.0832231920494,
        "timestamp": "2025-12-16T21:38:57.572542+00:00",
        "meta_object_name": "COSMOS 2251 DEB",
        "meta_object_id": "1993-036AZT",
        "meta_epoch": "2025-12-15T11:49:33.237120",
        "meta_mean_motion": 14.36903496,
        "meta_eccentricity": 0.00182639,
        "meta_inclination": 74.0376,
        "meta_ra_of_asc_node": 270.4195,
        "meta_arg_of_pericenter": 357.521,
        "meta_mean_anomaly": 121.8451,
        "meta_ephemeris_type": 0,
        "meta_classification_type": "U",
        "meta_norad_cat_id": 36420,
        "meta_element_set_no": 999,
        "meta_rev_at_epoch": 85076,
        "meta_bstar": 0.00015513934,
        "meta_mean_motion_dot": 4.34e-06,
        "meta_mean_motion_ddot": 0,
        "tle_line1": "1 36420U 93036AZT 25349.49274580  .00000434  00000+0  15514-3 0  9997",
        "tle_line2": "2 36420  74.0376 270.4195 0018263 357.5210 121.8451 14.36903496850768"
      },
      "geometry": {
        "type": "Point",
        "coordinates": [
          95.6693286417093,
          -25.48025991892239
        ]
      }
    },
    {
      "type": "Feature",
      "properties": {
        "norad_id": 36430,
        "name": "COSMOS 2251 DEB",
        "group": "cosmos-2251-debris",
        "lat": 73.98488215891498,
        "lon": -166.95892107606545,
        "alt_km": 857.1637308570298,
        "timestamp": "2025-12-16T21:38:57.572552+00:00",
        "meta_object_name": "COSMOS 2251 DEB",
        "meta_object_id": "1993-036BAD",
        "meta_epoch": "2025-12-15T01:29:56.245920",
        "meta_mean_motion": 14.27797993,
        "meta_eccentricity": 0.00974903,
        "meta_inclination": 74.0045,
        "meta_ra_of_asc_node": 104.313,
        "meta_arg_of_pericenter": 253.9195,
        "meta_mean_anomaly": 105.1202,
        "meta_ephemeris_type": 0,
        "meta_classification_type": "U",
        "meta_norad_cat_id": 36430,
        "meta_element_set_no": 999,
        "meta_rev_at_epoch": 64590,
        "meta_bstar": 0.00050435869,
        "meta_mean_motion_dot": 1.285e-05,
        "meta_mean_motion_ddot": 0,
        "tle_line1": "1 36430U 93036BAD 25349.06245655  .00001285  00000+0  50436-3 0  9999",
        "tle_line2": "2 36430  74.0045 104.3130 0097490 253.9195 105.1202 14.27797993645906"
      },
      "geometry": {
        "type": "Point",
        "coordinates": [
          -166.95892107606545,
          73.98488215891498
        ]
      }
    },
    {
      "type": "Feature",
      "properties": {
        "norad_id": 36437,
        "name": "COSMOS 2251 DEB",
        "group": "cosmos-2251-debris",
        "lat": 18.66247411272949,
        "lon": 31.456691636436318,
        "alt_km": 667.3621030979448,
        "timestamp": "2025-12-16T21:38:57.572562+00:00",
        "meta_object_name": "COSMOS 2251 DEB",
        "meta_object_id": "1993-036BAL",
        "meta_epoch": "2025-12-15T09:38:46.294080",
        "meta_mean_motion": 14.70743739,
        "meta_eccentricity": 0.00232585,
        "meta_inclination": 73.9431,
        "meta_ra_of_asc_node": 28.8015,
        "meta_arg_of_pericenter": 260.2443,
        "meta_mean_anomaly": 99.6101,
        "meta_ephemeris_type": 0,
        "meta_classification_type": "U",
        "meta_norad_cat_id": 36437,
        "meta_element_set_no": 999,
        "meta_rev_at_epoch": 66090,
        "meta_bstar": 0.00092905041,
        "meta_mean_motion_dot": 5.662e-05,
        "meta_mean_motion_ddot": 0,
        "tle_line1": "1 36437U 93036BAL 25349.40192470  .00005662  00000+0  92905-3 0  9990",
        "tle_line2": "2 36437  73.9431  28.8015 0023258 260.2443  99.6101 14.70743739660909"
      },
      "geometry": {
        "type": "Point",
        "coordinates": [
          31.456691636436318,
          18.66247411272949
        ]
      }
    },
    {
      "type": "Feature",
      "properties": {
        "norad_id": 36439,
        "name": "COSMOS 2251 DEB",
        "group": "cosmos-2251-debris",
        "lat": -72.13384264596112,
        "lon": -86.80522296134073,
        "alt_km": 1124.391550536854,
        "timestamp": "2025-12-16T21:38:57.572573+00:00",
        "meta_object_name": "COSMOS 2251 DEB",
        "meta_object_id": "1993-036BAN",
        "meta_epoch": "2025-12-14T09:32:51.470880",
        "meta_mean_motion": 13.47799978,
        "meta_eccentricity": 0.04278843,
        "meta_inclination": 73.9685,
        "meta_ra_of_asc_node": 34.0698,
        "meta_arg_of_pericenter": 5.5967,
        "meta_mean_anomaly": 354.9698,
        "meta_ephemeris_type": 0,
        "meta_classification_type": "U",
        "meta_norad_cat_id": 36439,
        "meta_element_set_no": 999,
        "meta_rev_at_epoch": 58635,
        "meta_bstar": 0.0013173309,
        "meta_mean_motion_dot": 1.398e-05,
        "meta_mean_motion_ddot": 0,
        "tle_line1": "1 36439U 93036BAN 25348.39781795  .00001398  00000+0  13173-2 0  9994",
        "tle_line2": "2 36439  73.9685  34.0698 0427884   5.5967 354.9698 13.47799978586355"
      },
      "geometry": {
        "type": "Point",
        "coordinates": [
          -86.80522296134073,
          -72.13384264596112
        ]
      }
    },
    {
      "type": "Feature",
      "properties": {
        "norad_id": 36441,
        "name": "COSMOS 2251 DEB",
        "group": "cosmos-2251-debris",
        "lat": -57.52434877981759,
        "lon": -46.01563681439068,
        "alt_km": 610.3263360127876,
        "timestamp": "2025-12-16T21:38:57.572583+00:00",
        "meta_object_name": "COSMOS 2251 DEB",
        "meta_object_id": "1993-036BAQ",
        "meta_epoch": "2025-12-16T05:59:21.003360",
        "meta_mean_motion": 15.06817308,
        "meta_eccentricity": 0.01083984,
        "meta_inclination": 73.8346,
        "meta_ra_of_asc_node": 342.4539,
        "meta_arg_of_pericenter": 80.7132,
        "meta_mean_anomaly": 280.6296,
        "meta_ephemeris_type": 0,
        "meta_classification_type": "U",
        "meta_norad_cat_id": 36441,
        "meta_element_set_no": 999,
        "meta_rev_at_epoch": 87018,
        "meta_bstar": 0.00033481532,
        "meta_mean_motion_dot": 5.663e-05,
        "meta_mean_motion_ddot": 0,
        "tle_line1": "1 36441U 93036BAQ 25350.24954865  .00005663  00000+0  33482-3 0  9999",
        "tle_line2": "2 36441  73.8346 342.4539 0108398  80.7132 280.6296 15.06817308870187"
      },
      "geometry": {
        "type": "Point",
        "coordinates": [
          -46.01563681439068,
          -57.52434877981759
        ]
      }
    }
  ]
}